{
    "links": {
        "self": "http://www.neowsapp.com/rest/v1/neo/3712422?api_key=iIulBulltgU6a56xZRHN4H3l9WmuAYTsLGpBGhQ2"
    },
    "id": "3712422",
    "neo_reference_id": "3712422",
    "name": "(2015 DX180)",
    "designation": "2015 DX180",
    "nasa_jpl_url": "http://ssd.jpl.nasa.gov/sbdb.cgi?sstr=3712422",
    "absolute_magnitude_h": 23.7,
    "estimated_diameter": {
        "kilometers": {
            "estimated_diameter_min": 0.0483676488,
            "estimated_diameter_max": 0.1081533507
        },
        "meters": {
            "estimated_diameter_min": 48.3676488219,
            "estimated_diameter_max": 108.1533506775
        },
        "miles": {
            "estimated_diameter_min": 0.0300542543,
            "estimated_diameter_max": 0.0672033557
        },
        "feet": {
            "estimated_diameter_min": 158.6865169607,
            "estimated_diameter_max": 354.8338390368
        }
    },
    "is_potentially_hazardous_asteroid": false,
    "close_approach_data": [
        {
            "close_approach_date": "2015-02-12",
            "close_approach_date_full": "2015-Feb-12 07:53",
            "epoch_date_close_approach": 1423727580000,
            "relative_velocity": {
                "kilometers_per_second": "10.7782185738",
                "kilometers_per_hour": "38801.5868658589",
                "miles_per_hour": "24109.7971278444"
            },
            "miss_distance": {
                "astronomical": "0.1768134838",
                "lunar": "68.7804451982",
                "kilometers": "26450920.563759506",
                "miles": "16435839.8982969428"
            },
            "orbiting_body": "Earth"
        }
    ],
    "orbital_data": {
        "orbit_id": "5",
        "orbit_determination_date": "2017-04-06 08:35:26",
        "first_observation_date": "2015-02-19",
        "last_observation_date": "2015-02-24",
        "data_arc_in_days": 5,
        "observations_used": 15,
        "orbit_uncertainty": "8",
        "minimum_orbit_intersection": ".169216",
        "jupiter_tisserand_invariant": "4.415",
        "epoch_osculation": "2457073.5",
        "eccentricity": ".2375392104538108",
        "semi_major_axis": "1.516418267097419",
        "inclination": "20.3056421611101",
        "ascending_node_longitude": "322.5420379966024",
        "orbital_period": "682.0668431052442",
        "perihelion_distance": "1.156209469213362",
        "perihelion_argument": "182.9004103385079",
        "aphelion_distance": "1.876627064981475",
        "perihelion_time": "2457071.527242491332",
        "mean_anomaly": "1.041236222372557",
        "mean_motion": ".5278075069021517",
        "equinox": "J2000",
        "orbit_class": {
            "orbit_class_type": "AMO",
            "orbit_class_description": "Near-Earth asteroid orbits similar to that of 1221 Amor",
            "orbit_class_range": "1.017 AU < q (perihelion) < 1.3 AU"
        }
    },
    "is_sentry_object": false
}